ONEWEB-0549             
1 56051U 23043F   25244.68610279 -.00000022  00000+0 -84787-4 0  9998
2 56051  87.9230 301.5604 0001628  96.7421 263.3898 13.21825933120114
ONEWEB-0550             
1 56052U 23043G   25244.67345839 -.00000047  00000+0 -14574-3 0  9998
2 56052  87.9233 301.5569 0002066  94.8969 265.2401 13.21827705120111
ONEWEB-0551             
1 56053U 23043H   25244.66979082  .00000029  00000+0  43823-4 0  9999
2 56053  87.9054 316.7998 0001636  94.7351 265.3966 13.15549559118466
ONEWEB-0552             
1 56054U 23043J   25244.89426242  .00000164  00000+0  36530-3 0  9996
2 56054  87.9228 301.5217 0001737  89.2037 270.9296 13.21825267120144
ONEWEB-0553             
1 56055U 23043K   25244.84947292 -.00000037  00000+0 -13029-3 0  9994
2 56055  87.9001 286.2467 0002264 100.7898 259.3488 13.16593608121038
ONEWEB-0554             
1 56056U 23043L   25244.83679701 -.00000055  00000+0 -17753-3 0  9999
2 56056  87.8992 286.2743 0002142  89.8794 270.2583 13.16593003121016
ONEWEB-0555             
1 56057U 23043M   25244.64680973  .00000110  00000+0  25479-3 0  9996
2 56057  87.8998 286.2815 0002330 104.6616 255.4773 13.16595150120998
ONEWEB-0557             
1 56058U 23043N   25244.66105580 -.00000015  00000+0 -71870-4 0  9998
2 56058  87.8992 286.2976 0003232  91.6119 268.5382 13.16593471120991
